ONEWEB-0549             
1 56051U 23043F   25046.51287601  .00000124  00000+0  26946-3 0  9992
2 56051  87.9352 340.9801 0002250  81.7201 278.4188 13.21827410 94848
ONEWEB-0550             
1 56052U 23043G   25045.89468778  .00000045  00000+0  78278-4 0  9997
2 56052  87.9349 341.1016 0001732  83.2319 276.9012 13.21826990 93858
ONEWEB-0551             
1 56053U 23043H   25045.77987189  .00000127  00000+0  30226-3 0  9998
2 56053  87.9126 356.3004 0002051  84.7803 275.3561 13.15545979 92316
ONEWEB-0552             
1 56054U 23043J   25046.34258072 -.00000876  00000+0 -21537-2 0  9992
2 56054  87.9344 341.0226 0002902  74.8699 285.2756 13.21815379 94829
ONEWEB-0553             
1 56055U 23043K   25046.49739892  .00000008  00000+0 -13915-4 0  9992
2 56055  87.9126 325.7731 0001799  67.2062 292.9258 13.16592892 95842
ONEWEB-0554             
1 56056U 23043L   25045.49676168 -.00000338  00000+0 -91790-3 0  9991
2 56056  87.9129 325.9991 0001338  97.0044 263.1239 13.16594005 95696
ONEWEB-0555             
1 56057U 23043M   25045.30677611  .00000092  00000+0  20711-3 0  9996
2 56057  87.9126 326.0034 0001516  55.1413 304.9861 13.16592294 94767
ONEWEB-0557             
1 56058U 23043N   25045.47302344  .00000095  00000+0  21601-3 0  9995
2 56058  87.9127 325.9945 0000993  48.7808 311.3408 13.16593542 94780
